{
    "links": {
        "self": "http://www.neowsapp.com/rest/v1/neo/3736813?api_key=iIulBulltgU6a56xZRHN4H3l9WmuAYTsLGpBGhQ2"
    },
    "id": "3736813",
    "neo_reference_id": "3736813",
    "name": "(2015 XX378)",
    "designation": "2015 XX378",
    "nasa_jpl_url": "http://ssd.jpl.nasa.gov/sbdb.cgi?sstr=3736813",
    "absolute_magnitude_h": 24.8,
    "estimated_diameter": {
        "kilometers": {
            "estimated_diameter_min": 0.0291443905,
            "estimated_diameter_max": 0.0651688382
        },
        "meters": {
            "estimated_diameter_min": 29.1443904535,
            "estimated_diameter_max": 65.1688382168
        },
        "miles": {
            "estimated_diameter_min": 0.018109479,
            "estimated_diameter_max": 0.0404940262
        },
        "feet": {
            "estimated_diameter_min": 95.6180819754,
            "estimated_diameter_max": 213.8085311752
        }
    },
    "is_potentially_hazardous_asteroid": false,
    "close_approach_data": [
        {
            "close_approach_date": "1932-12-07",
            "close_approach_date_full": "1932-Dec-07 10:32",
            "epoch_date_close_approach": -1169731680000,
            "relative_velocity": {
                "kilometers_per_second": "21.5440565032",
                "kilometers_per_hour": "77558.6034113832",
                "miles_per_hour": "48191.8999919231"
            },
            "miss_distance": {
                "astronomical": "0.2009968975",
                "lunar": "78.1877931275",
                "kilometers": "30068707.742608325",
                "miles": "18683828.610611885"
            },
            "orbiting_body": "Earth"
        },
        {
            "close_approach_date": "1936-05-13",
            "close_approach_date_full": "1936-May-13 19:54",
            "epoch_date_close_approach": -1061438760000,
            "relative_velocity": {
                "kilometers_per_second": "23.6656886449",
                "kilometers_per_hour": "85196.4791217113",
                "miles_per_hour": "52937.7789298211"
            },
            "miss_distance": {
                "astronomical": "0.3071870661",
                "lunar": "119.4957687129",
                "kilometers": "45954530.780109207",
                "miles": "28554821.3221007766"
            },
            "orbiting_body": "Earth"
        },
        {
            "close_approach_date": "1948-11-23",
            "close_approach_date_full": "1948-Nov-23 14:31",
            "epoch_date_close_approach": -666005340000,
            "relative_velocity": {
                "kilometers_per_second": "29.1194966148",
                "kilometers_per_hour": "104830.1878131079",
                "miles_per_hour": "65137.4019775392"
            },
            "miss_distance": {
                "astronomical": "0.4500571433",
                "lunar": "175.0722287437",
                "kilometers": "67327590.015964771",
                "miles": "41835424.5015089998"
            },
            "orbiting_body": "Earth"
        },
        {
            "close_approach_date": "1950-08-20",
            "close_approach_date_full": "1950-Aug-20 02:49",
            "epoch_date_close_approach": -611183460000,
            "relative_velocity": {
                "kilometers_per_second": "4.166665799",
                "kilometers_per_hour": "14999.9968763176",
                "miles_per_hour": "9320.4147257319"
            },
            "miss_distance": {
                "astronomical": "1.4970376636",
                "lunar": "582.3476511404",
                "kilometers": "223953645.784336532",
                "miles": "139158342.6322948616"
            },
            "orbiting_body": "Juptr"
        },
        {
            "close_approach_date": "2015-12-24",
            "close_approach_date_full": "2015-Dec-24 01:53",
            "epoch_date_close_approach": 1450921980000,
            "relative_velocity": {
                "kilometers_per_second": "15.3178295701",
                "kilometers_per_hour": "55144.1864522923",
                "miles_per_hour": "34264.4529653146"
            },
            "miss_distance": {
                "astronomical": "0.017832409",
                "lunar": "6.936807101",
                "kilometers": "2667690.40336883",
                "miles": "1657625.951516654"
            },
            "orbiting_body": "Earth"
        }
    ],
    "orbital_data": {
        "orbit_id": "6",
        "orbit_determination_date": "2020-09-11 07:35:41",
        "first_observation_date": "2015-12-03",
        "last_observation_date": "2015-12-22",
        "data_arc_in_days": 19,
        "observations_used": 46,
        "orbit_uncertainty": "7",
        "minimum_orbit_intersection": ".0123569",
        "jupiter_tisserand_invariant": "3.378",
        "epoch_osculation": "2459000.5",
        "eccentricity": ".6391423782170916",
        "semi_major_axis": "2.17572343789295",
        "inclination": "7.465768569034984",
        "ascending_node_longitude": "95.73622779041544",
        "orbital_period": "1172.206059747921",
        "perihelion_distance": ".7851263854553833",
        "perihelion_argument": "55.2945441672769",
        "aphelion_distance": "3.566320490330516",
        "perihelion_time": "2458591.445807289465",
        "mean_anomaly": "125.6259581250249",
        "mean_motion": ".3071132391837463",
        "equinox": "J2000",
        "orbit_class": {
            "orbit_class_type": "APO",
            "orbit_class_description": "Near-Earth asteroid orbits which cross the Earth’s orbit similar to that of 1862 Apollo",
            "orbit_class_range": "a (semi-major axis) > 1.0 AU; q (perihelion) < 1.017 AU"
        }
    },
    "is_sentry_object": false
}